start=new Date('2022-01-03T00:00:00.000Z').valueOf();
sats=[{"GP_ID":"192945755","FILE":"3255249","OBJECT_NAME":"STARLINK-2244","RCS_SIZE":"LARGE","CENTER_NAME":"EARTH","SITE":"AFETR","TLE_LINE1":"1 48588U 21041AM  22002.68249680 -.00000185  00000-0  65335-5 0  9992","MEAN_ELEMENT_THEORY":"SGP4","MEAN_ANOMALY":"257.6515","LAUNCH_DATE":"2021-05-15","MEAN_MOTION_DDOT":"0.0000000000000","REV_AT_EPOCH":"3504","ARG_OF_PERICENTER":"102.4722","COUNTRY_CODE":"US","CLASSIFICATION_TYPE":"U","APOAPSIS":"548.755","TLE_LINE2":"2 48588  53.0540 146.6289 0002221 102.4722 257.6515 15.06398806 35042","INCLINATION":"53.0540","MEAN_MOTION":"15.06398806","NORAD_CAT_ID":"48588","REF_FRAME":"TEME","EPHEMERIS_TYPE":"0","EPOCH":"2022-01-02T16:22:47.723520","DECAY_DATE":null,"TIME_SYSTEM":"UTC","RA_OF_ASC_NODE":"146.6289","PERIOD":"95.592","SEMIMAJOR_AXIS":"6925.352","OBJECT_ID":"2021-041AM","BSTAR":"0.00000653350000","MEAN_MOTION_DOT":"-0.00000185","ECCENTRICITY":"0.00022210","PERIAPSIS":"545.679","OBJECT_TYPE":"PAYLOAD","ELEMENT_SET_NO":"999"},{"PERIOD":"95.594","RA_OF_ASC_NODE":"146.6383","SEMIMAJOR_AXIS":"6925.414","TIME_SYSTEM":"UTC","OBJECT_ID":"2021-041AN","EPOCH":"2022-01-02T16:17:29.669568","DECAY_DATE":null,"REF_FRAME":"TEME","NORAD_CAT_ID":"48589","EPHEMERIS_TYPE":"0","ELEMENT_SET_NO":"999","PERIAPSIS":"545.177","OBJECT_TYPE":"PAYLOAD","BSTAR":"0.00028524000000","MEAN_MOTION_DOT":"0.00003967","ECCENTRICITY":"0.00030360","LAUNCH_DATE":"2021-05-15","MEAN_ELEMENT_THEORY":"SGP4","MEAN_ANOMALY":"238.4188","SITE":"AFETR","TLE_LINE1":"1 48589U 21041AN  22002.67881562  .00003967  00000-0  28524-3 0  9990","RCS_SIZE":"LARGE","CENTER_NAME":"EARTH","FILE":"3255249","GP_ID":"192946006","OBJECT_NAME":"STARLINK-2245","INCLINATION":"53.0548","MEAN_MOTION":"15.06378513","APOAPSIS":"549.382","TLE_LINE2":"2 48589  53.0548 146.6383 0003036 121.7097 238.4188 15.06378513 35046","COUNTRY_CODE":"US","CLASSIFICATION_TYPE":"U","MEAN_MOTION_DDOT":"0.0000000000000","ARG_OF_PERICENTER":"121.7097","REV_AT_EPOCH":"3504"},{"APOAPSIS":"548.731","TLE_LINE2":"2 48590  53.0553 156.8223 0002160  93.7201 266.4035 15.06393028 34894","MEAN_MOTION":"15.06393028","INCLINATION":"53.0553","MEAN_MOTION_DDOT":"0.0000000000000","REV_AT_EPOCH":"3489","ARG_OF_PERICENTER":"93.7201","COUNTRY_CODE":"US","CLASSIFICATION_TYPE":"U","SITE":"AFETR","TLE_LINE1":"1 48590U 21041AP  22002.63734707  .00001101  00000-0  92858-4 0  9996","MEAN_ELEMENT_THEORY":"SGP4","MEAN_ANOMALY":"266.4035","LAUNCH_DATE":"2021-05-15","GP_ID":"192946755","FILE":"3255249","OBJECT_NAME":"STARLINK-2246","RCS_SIZE":"LARGE","CENTER_NAME":"EARTH","OBJECT_TYPE":"PAYLOAD","PERIAPSIS":"545.739","ELEMENT_SET_NO":"999","BSTAR":"0.00009285800000","MEAN_MOTION_DOT":"0.00001101","ECCENTRICITY":"0.00021600","EPOCH":"2022-01-02T15:17:46.786848","DECAY_DATE":null,"TIME_SYSTEM":"UTC","PERIOD":"95.593","SEMIMAJOR_AXIS":"6925.370","RA_OF_ASC_NODE":"156.8223","OBJECT_ID":"2021-041AP","NORAD_CAT_ID":"48590","REF_FRAME":"TEME","EPHEMERIS_TYPE":"0"},{"MEAN_ELEMENT_THEORY":"SGP4","MEAN_ANOMALY":"259.9299","LAUNCH_DATE":"2021-05-15","SITE":"AFETR","TLE_LINE1":"1 48591U 21041AQ  22002.66312841 -.00000524  00000-0 -16238-4 0  9999","RCS_SIZE":"LARGE","CENTER_NAME":"EARTH","FILE":"3255249","GP_ID":"192945005","OBJECT_NAME":"STARLINK-2248","MEAN_MOTION":"15.06396844","INCLINATION":"53.0598","APOAPSIS":"548.667","TLE_LINE2":"2 48591  53.0598 146.6359 0002085 100.1925 259.9299 15.06396844 35948","COUNTRY_CODE":"US","CLASSIFICATION_TYPE":"U","MEAN_MOTION_DDOT":"0.0000000000000","REV_AT_EPOCH":"3594","ARG_OF_PERICENTER":"100.1925","TIME_SYSTEM":"UTC","RA_OF_ASC_NODE":"146.6359","PERIOD":"95.592","SEMIMAJOR_AXIS":"6925.358","OBJECT_ID":"2021-041AQ","EPOCH":"2022-01-02T15:54:54.294624","DECAY_DATE":null,"NORAD_CAT_ID":"48591","REF_FRAME":"TEME","EPHEMERIS_TYPE":"0","ELEMENT_SET_NO":"999","PERIAPSIS":"545.779","OBJECT_TYPE":"PAYLOAD","MEAN_MOTION_DOT":"-0.00000524","BSTAR":"-0.00001623800000","ECCENTRICITY":"0.00020850"},{"SITE":"AFETR","TLE_LINE1":"1 48592U 21041AR  22002.80321806 -.00000115  00000-0  11232-4 0  9991","LAUNCH_DATE":"2021-05-15","MEAN_ANOMALY":"262.9981","MEAN_ELEMENT_THEORY":"SGP4","FILE":"3255249","GP_ID":"192945255","OBJECT_NAME":"STARLINK-2249","RCS_SIZE":"LARGE","CENTER_NAME":"EARTH","APOAPSIS":"548.766","TLE_LINE2":"2 48592  53.0555 156.0894 0002250  97.1264 262.9981 15.06401978 34920","INCLINATION":"53.0555","MEAN_MOTION":"15.06401978","MEAN_MOTION_DDOT":"0.0000000000000","ARG_OF_PERICENTER":"97.1264","REV_AT_EPOCH":"3492","COUNTRY_CODE":"US","CLASSIFICATION_TYPE":"U","EPOCH":"2022-01-02T19:16:38.040384","DECAY_DATE":null,"PERIOD":"95.592","RA_OF_ASC_NODE":"156.0894","SEMIMAJOR_AXIS":"6925.342","TIME_SYSTEM":"UTC","OBJECT_ID":"2021-041AR","REF_FRAME":"TEME","NORAD_CAT_ID":"48592","EPHEMERIS_TYPE":"0","OBJECT_TYPE":"PAYLOAD","PERIAPSIS":"545.649","ELEMENT_SET_NO":"999","BSTAR":"0.00001123200000","MEAN_MOTION_DOT":"-0.00000115","ECCENTRICITY":"0.00022500"},{"OBJECT_ID":"2021-041AS","PERIOD":"95.592","RA_OF_ASC_NODE":"156.3434","SEMIMAJOR_AXIS":"6925.344","TIME_SYSTEM":"UTC","DECAY_DATE":null,"EPOCH":"2022-01-02T17:51:42.326496","EPHEMERIS_TYPE":"0","REF_FRAME":"TEME","NORAD_CAT_ID":"48593","ELEMENT_SET_NO":"999","PERIAPSIS":"545.680","OBJECT_TYPE":"PAYLOAD","BSTAR":"0.00006151200000","MEAN_MOTION_DOT":"0.00000635","ECCENTRICITY":"0.00022070","LAUNCH_DATE":"2021-05-15","MEAN_ANOMALY":"263.6783","MEAN_ELEMENT_THEORY":"SGP4","TLE_LINE1":"1 48593U 21041AS  22002.74423989  .00000635  00000-0  61512-4 0  9992","SITE":"AFETR","CENTER_NAME":"EARTH","RCS_SIZE":"LARGE","OBJECT_NAME":"STARLINK-2250","GP_ID":"192946507","FILE":"3255249","INCLINATION":"53.0550","MEAN_MOTION":"15.06401590","TLE_LINE2":"2 48593  53.0550 156.3434 0002207  96.4457 263.6783 15.06401590 34914","APOAPSIS":"548.737","CLASSIFICATION_TYPE":"U","COUNTRY_CODE":"US","ARG_OF_PERICENTER":"96.4457","REV_AT_EPOCH":"3491","MEAN_MOTION_DDOT":"0.0000000000000"},{"TLE_LINE1":"1 48594U 21041AT  22002.91667824 -.00019824  00000-0 -13449-2 0  9996","SITE":"AFETR","MEAN_ELEMENT_THEORY":"SGP4","MEAN_ANOMALY":"222.4023","LAUNCH_DATE":"2021-05-15","OBJECT_NAME":"STARLINK-2251","GP_ID":"192946256","FILE":"3255249","CENTER_NAME":"EARTH","RCS_SIZE":"LARGE","TLE_LINE2":"2 48594  53.0533 125.1246 0001606 107.8831 222.4023 15.05587996  3589","APOAPSIS":"550.816","INCLINATION":"53.0533","MEAN_MOTION":"15.05587996","REV_AT_EPOCH":"358","ARG_OF_PERICENTER":"107.8831","MEAN_MOTION_DDOT":"0.0000000000000","CLASSIFICATION_TYPE":"U","COUNTRY_CODE":"US","DECAY_DATE":null,"EPOCH":"2022-01-02T22:00:00.999936","OBJECT_ID":"2021-041AT","TIME_SYSTEM":"UTC","PERIOD":"95.644","RA_OF_ASC_NODE":"125.1246","SEMIMAJOR_AXIS":"6927.838","EPHEMERIS_TYPE":"0","NORAD_CAT_ID":"48594","REF_FRAME":"TEME","PERIAPSIS":"548.591","OBJECT_TYPE":"PAYLOAD","ELEMENT_SET_NO":"999","MEAN_MOTION_DOT":"-0.00019824","BSTAR":"-0.00134490000000","ECCENTRICITY":"0.00016060"},{"NORAD_CAT_ID":"48595","REF_FRAME":"TEME","EPHEMERIS_TYPE":"0","EPOCH":"2022-01-02T20:36:15.352992","DECAY_DATE":null,"TIME_SYSTEM":"UTC","SEMIMAJOR_AXIS":"6925.336","PERIOD":"95.592","RA_OF_ASC_NODE":"155.8333","OBJECT_ID":"2021-041AU","MEAN_MOTION_DOT":"-0.00000521","ECCENTRICITY":"0.00021400","BSTAR":"-0.00001603100000","OBJECT_TYPE":"PAYLOAD","PERIAPSIS":"545.719","ELEMENT_SET_NO":"999","GP_ID":"192945506","FILE":"3255249","OBJECT_NAME":"STARLINK-2252","RCS_SIZE":"LARGE","CENTER_NAME":"EARTH","SITE":"AFETR","TLE_LINE1":"1 48595U 21041AU  22002.85851103 -.00000521  00000-0 -16031-4 0  9991","MEAN_ANOMALY":"264.6909","MEAN_ELEMENT_THEORY":"SGP4","LAUNCH_DATE":"2021-05-15","MEAN_MOTION_DDOT":"0.0000000000000","REV_AT_EPOCH":"3620","ARG_OF_PERICENTER":"95.4324","COUNTRY_CODE":"US","CLASSIFICATION_TYPE":"U","APOAPSIS":"548.683","TLE_LINE2":"2 48595  53.0561 155.8333 0002140  95.4324 264.6909 15.06404041 36207","INCLINATION":"53.0561","MEAN_MOTION":"15.06404041"},{"REF_FRAME":"TEME","NORAD_CAT_ID":"48596","EPHEMERIS_TYPE":"0","EPOCH":"2022-01-02T21:08:05.047008","DECAY_DATE":null,"SEMIMAJOR_AXIS":"6925.310","PERIOD":"95.591","RA_OF_ASC_NODE":"155.7318","TIME_SYSTEM":"UTC","OBJECT_ID":"2021-041AV","MEAN_MOTION_DOT":"-0.00000064","BSTAR":"0.00001464000000","ECCENTRICITY":"0.00023590","OBJECT_TYPE":"PAYLOAD","PERIAPSIS":"545.542","ELEMENT_SET_NO":"999","GP_ID":"192945756","FILE":"3255249","OBJECT_NAME":"STARLINK-2253","RCS_SIZE":"LARGE","CENTER_NAME":"EARTH","SITE":"AFETR","TLE_LINE1":"1 48596U 21041AV  22002.88061397 -.00000064  00000-0  14640-4 0  9998","LAUNCH_DATE":"2021-05-15","MEAN_ANOMALY":"273.6215","MEAN_ELEMENT_THEORY":"SGP4","MEAN_MOTION_DDOT":"0.0000000000000","ARG_OF_PERICENTER":"86.5044","REV_AT_EPOCH":"3539","COUNTRY_CODE":"US","CLASSIFICATION_TYPE":"U","APOAPSIS":"548.809","TLE_LINE2":"2 48596  53.0550 155.7318 0002359  86.5044 273.6215 15.06412466 35399","INCLINATION":"53.0550","MEAN_MOTION":"15.06412466"},{"EPOCH":"2022-01-02T14:56:32.297856","DECAY_DATE":null,"RA_OF_ASC_NODE":"156.8992","PERIOD":"95.592","SEMIMAJOR_AXIS":"6925.332","TIME_SYSTEM":"UTC","OBJECT_ID":"2021-041AW","REF_FRAME":"TEME","NORAD_CAT_ID":"48597","EPHEMERIS_TYPE":"0","PERIAPSIS":"545.624","OBJECT_TYPE":"PAYLOAD","ELEMENT_SET_NO":"999","MEAN_MOTION_DOT":"0.00001264","ECCENTRICITY":"0.00022720","BSTAR":"0.00010375000000","SITE":"AFETR","TLE_LINE1":"1 48597U 21041AW  22002.62259604  .00001264  00000-0  10375-3 0  9993","LAUNCH_DATE":"2021-05-15","MEAN_ELEMENT_THEORY":"SGP4","MEAN_ANOMALY":"265.6145","GP_ID":"192921516","FILE":"3255248","OBJECT_NAME":"STARLINK-2255","RCS_SIZE":"LARGE","CENTER_NAME":"EARTH","APOAPSIS":"548.771","TLE_LINE2":"2 48597  53.0562 156.8992 0002272  94.5104 265.6145 15.06405357 36163","INCLINATION":"53.0562","MEAN_MOTION":"15.06405357","MEAN_MOTION_DDOT":"0.0000000000000","ARG_OF_PERICENTER":"94.5104","REV_AT_EPOCH":"3616","COUNTRY_CODE":"US","CLASSIFICATION_TYPE":"U"}];
